[
    {
        "Altitude(m)": 605459.0109503237,
        "Argument of Periapsis(deg)": 0.0,
        "Eccentricity": 0.0,
        "Inclination(deg)": 60.0,
        "Latitude(deg)": 27.988156052005365,
        "Longitude(deg)": -127.20137906590786,
        "Mean Anomaly(deg)": 32.72730000000001,
        "RAAN(deg)": 315.0,
        "Satellite Name": "Test1 1388",
        "Satellite Number": 1388,
        "Semi-Major Axis(m)": 6980739.136638005,
        "Time(s)": 0
    },
    {
        "Altitude(m)": 605535.8016230885,
        "Argument of Periapsis(deg)": 0.00010418945913296404,
        "Eccentricity": 0.0,
        "Inclination(deg)": 60.0,
        "Latitude(deg)": 28.501285139567727,
        "Longitude(deg)": -126.84443339805843,
        "Mean Anomaly(deg)": 33.34740614546182,
        "RAAN(deg)": 314.99957995086027,
        "Satellite Name": "Test1 1388",
        "Satellite Number": 1388,
        "Semi-Major Axis(m)": 6980739.136638005,
        "Time(s)": 10
    },
    {
        "Altitude(m)": 605614.2829161168,
        "Argument of Periapsis(deg)": 0.0002083789182659281,
        "Eccentricity": 0.0,
        "Inclination(deg)": 60.0,
        "Latitude(deg)": 29.013196700595696,
        "Longitude(deg)": -126.48362289718001,
        "Mean Anomaly(deg)": 33.967512290923665,
        "RAAN(deg)": 314.9991599017205,
        "Satellite Name": "Test1 1388",
        "Satellite Number": 1388,
        "Semi-Major Axis(m)": 6980739.136638005,
        "Time(s)": 20
    },
    {
        "Altitude(m)": 605694.3971374134,
        "Argument of Periapsis(deg)": 0.00031256837739889213,
        "Eccentricity": 0.0,
        "Inclination(deg)": 60.0,
        "Latitude(deg)": 29.52385346210528,
        "Longitude(deg)": -126.1188358075447,
        "Mean Anomaly(deg)": 34.58761843638547,
        "RAAN(deg)": 314.9987398525808,
        "Satellite Name": "Test1 1388",
        "Satellite Number": 1388,
        "Semi-Major Axis(m)": 6980739.136638005,
        "Time(s)": 30
    },
    {
        "Altitude(m)": 605776.0859856169,
        "Argument of Periapsis(deg)": 0.0004167578365318562,
        "Eccentricity": 0.0,
        "Inclination(deg)": 60.0,
        "Latitude(deg)": 30.033217154640322,
        "Longitude(deg)": -125.74995736713537,
        "Mean Anomaly(deg)": 35.20772458184732,
        "RAAN(deg)": 314.99831980344106,
        "Satellite Name": "Test1 1388",
        "Satellite Number": 1388,
        "Semi-Major Axis(m)": 6980739.136638005,
        "Time(s)": 40
    },
    {
        "Altitude(m)": 605859.2905803628,
        "Argument of Periapsis(deg)": 0.0005209472956648203,
        "Eccentricity": 0.0,
        "Inclination(deg)": 60.0,
        "Latitude(deg)": 30.541248473538914,
        "Longitude(deg)": -125.37687074883003,
        "Mean Anomaly(deg)": 35.82783072730913,
        "RAAN(deg)": 314.9978997543013,
        "Satellite Name": "Test1 1388",
        "Satellite Number": 1388,
        "Semi-Major Axis(m)": 6980739.136638005,
        "Time(s)": 50
    },
    {
        "Altitude(m)": 605943.9514928554,
        "Argument of Periapsis(deg)": 0.0006251367547977843,
        "Eccentricity": 0.0,
        "Inclination(deg)": 60.0,
        "Latitude(deg)": 31.047907038841064,
        "Longitude(deg)": -124.99945648853964,
        "Mean Anomaly(deg)": 36.447936872770974,
        "RAAN(deg)": 314.99747970516154,
        "Satellite Name": "Test1 1388",
        "Satellite Number": 1388,
        "Semi-Major Axis(m)": 6980739.136638005,
        "Time(s)": 60
    },
    {
        "Altitude(m)": 606030.0087766829,
        "Argument of Periapsis(deg)": 0.0007293262139307483,
        "Eccentricity": 0.0,
        "Inclination(deg)": 60.0,
        "Latitude(deg)": 31.55315135379695,
        "Longitude(deg)": -124.61759191333452,
        "Mean Anomaly(deg)": 37.06804301823283,
        "RAAN(deg)": 314.9970596560218,
        "Satellite Name": "Test1 1388",
        "Satellite Number": 1388,
        "Semi-Major Axis(m)": 6980739.136638005,
        "Time(s)": 70
    },
    {
        "Altitude(m)": 606117.4019988106,
        "Argument of Periapsis(deg)": 0.0008335156730637124,
        "Eccentricity": 0.0,
        "Inclination(deg)": 60.0,
        "Latitude(deg)": 32.05693876193897,
        "Longitude(deg)": -124.23115208261581,
        "Mean Anomaly(deg)": 37.68814916369463,
        "RAAN(deg)": 314.99663960688207,
        "Satellite Name": "Test1 1388",
        "Satellite Number": 1388,
        "Semi-Major Axis(m)": 6980739.136638005,
        "Time(s)": 80
    },
    {
        "Altitude(m)": 606206.07027078,
        "Argument of Periapsis(deg)": 0.0009377051321966765,
        "Eccentricity": 0.0,
        "Inclination(deg)": 60.0,
        "Latitude(deg)": 32.559225402674045,
        "Longitude(deg)": -123.84000921679616,
        "Mean Anomaly(deg)": 38.308255309156486,
        "RAAN(deg)": 314.99621955774234,
        "Satellite Name": "Test1 1388",
        "Satellite Number": 1388,
        "Semi-Major Axis(m)": 6980739.136638005,
        "Time(s)": 90
    },
    {
        "Altitude(m)": 606295.9522800591,
        "Argument of Periapsis(deg)": 0.0010418945913296407,
        "Eccentricity": 0.0,
        "Inclination(deg)": 60.0,
        "Latitude(deg)": 33.05996616535852,
        "Longitude(deg)": -123.44403212659495,
        "Mean Anomaly(deg)": 38.92836145461828,
        "RAAN(deg)": 314.99579950860254,
        "Satellite Name": "Test1 1388",
        "Satellite Number": 1388,
        "Semi-Major Axis(m)": 6980739.136638005,
        "Time(s)": 100
    },
    {
        "Altitude(m)": 606386.9863215686,
        "Argument of Periapsis(deg)": 0.0011460840504626045,
        "Eccentricity": 0.0,
        "Inclination(deg)": 60.0,
        "Latitude(deg)": 33.55911464182218,
        "Longitude(deg)": -123.04308715608245,
        "Mean Anomaly(deg)": 39.54846760008014,
        "RAAN(deg)": 314.99537945946287,
        "Satellite Name": "Test1 1388",
        "Satellite Number": 1388,
        "Semi-Major Axis(m)": 6980739.136638005,
        "Time(s)": 110
    },
    {
        "Altitude(m)": 606479.1103293382,
        "Argument of Periapsis(deg)": 0.0012502735095955685,
        "Eccentricity": 0.0,
        "Inclination(deg)": 60.0,
        "Latitude(deg)": 34.056623077300046,
        "Longitude(deg)": -122.6370376140209,
        "Mean Anomaly(deg)": 40.16857374554194,
        "RAAN(deg)": 314.99495941032313,
        "Satellite Name": "Test1 1388",
        "Satellite Number": 1388,
        "Semi-Major Axis(m)": 6980739.136638005,
        "Time(s)": 120
    },
    {
        "Altitude(m)": 606572.2619082789,
        "Argument of Periapsis(deg)": 0.0013544629687285324,
        "Eccentricity": 0.0,
        "Inclination(deg)": 60.0,
        "Latitude(deg)": 34.55244231974189,
        "Longitude(deg)": -122.22574320669949,
        "Mean Anomaly(deg)": 40.788679891003795,
        "RAAN(deg)": 314.99453936118334,
        "Satellite Name": "Test1 1388",
        "Satellite Number": 1388,
        "Semi-Major Axis(m)": 6980739.136638005,
        "Time(s)": 130
    },
    {
        "Altitude(m)": 606666.3783660692,
        "Argument of Periapsis(deg)": 0.0014586524278614966,
        "Eccentricity": 0.0,
        "Inclination(deg)": 60.0,
        "Latitude(deg)": 35.04652176746907,
        "Longitude(deg)": -121.80906098549872,
        "Mean Anomaly(deg)": 41.40878603646564,
        "RAAN(deg)": 314.9941193120436,
        "Satellite Name": "Test1 1388",
        "Satellite Number": 1388,
        "Semi-Major Axis(m)": 6980739.136638005,
        "Time(s)": 140
    },
    {
        "Altitude(m)": 606761.3967451311,
        "Argument of Periapsis(deg)": 0.0015628418869944607,
        "Eccentricity": 0.0,
        "Inclination(deg)": 60.0,
        "Latitude(deg)": 35.53880931514762,
        "Longitude(deg)": -121.38684478383956,
        "Mean Anomaly(deg)": 42.02889218192745,
        "RAAN(deg)": 314.9936992629039,
        "Satellite Name": "Test1 1388",
        "Satellite Number": 1388,
        "Semi-Major Axis(m)": 6980739.136638005,
        "Time(s)": 150
    },
    {
        "Altitude(m)": 606857.2538546864,
        "Argument of Periapsis(deg)": 0.0016670313461274247,
        "Eccentricity": 0.0,
        "Inclination(deg)": 60.0,
        "Latitude(deg)": 36.0292512980551,
        "Longitude(deg)": -120.95894465683517,
        "Mean Anomaly(deg)": 42.6489983273893,
        "RAAN(deg)": 314.99327921376414,
        "Satellite Name": "Test1 1388",
        "Satellite Number": 1388,
        "Semi-Major Axis(m)": 6980739.136638005,
        "Time(s)": 160
    },
    {
        "Altitude(m)": 606953.8863028702,
        "Argument of Periapsis(deg)": 0.0017712208052603888,
        "Eccentricity": 0.0,
        "Inclination(deg)": 60.0,
        "Latitude(deg)": 36.517792434621875,
        "Longitude(deg)": -120.525207837006,
        "Mean Anomaly(deg)": 43.269104472851105,
        "RAAN(deg)": 314.9928591646244,
        "Satellite Name": "Test1 1388",
        "Satellite Number": 1388,
        "Semi-Major Axis(m)": 6980739.136638005,
        "Time(s)": 170
    },
    {
        "Altitude(m)": 607051.2305288765,
        "Argument of Periapsis(deg)": 0.001875410264393353,
        "Eccentricity": 0.0,
        "Inclination(deg)": 60.0,
        "Latitude(deg)": 37.004375767229476,
        "Longitude(deg)": -120.0854781808548,
        "Mean Anomaly(deg)": 43.88921061831296,
        "RAAN(deg)": 314.9924391154846,
        "Satellite Name": "Test1 1388",
        "Satellite Number": 1388,
        "Semi-Major Axis(m)": 6980739.136638005,
        "Time(s)": 180
    },
    {
        "Altitude(m)": 607149.2228351479,
        "Argument of Periapsis(deg)": 0.0019795997235263173,
        "Eccentricity": 0.0,
        "Inclination(deg)": 60.0,
        "Latitude(deg)": 37.48894260125699,
        "Longitude(deg)": -119.63959561976955,
        "Mean Anomaly(deg)": 44.50931676377476,
        "RAAN(deg)": 314.99201906634494,
        "Satellite Name": "Test1 1388",
        "Satellite Number": 1388,
        "Semi-Major Axis(m)": 6980739.136638005,
        "Time(s)": 190
    }
]